NORAD_CAT_ID,OBJECT_NAME,OBJECT_TYPE,EPOCH,MEAN_MOTION,ECCENTRICITY,INCLINATION,RA_OF_ASC_NODE,ARG_OF_PERICENTER,MEAN_ANOMALY,BSTAR,MEAN_MOTION_DOT,MEAN_MOTION_DDOT,TLE_LINE0,TLE_LINE1,TLE_LINE2,SEMIMAJOR_AXIS,PERIOD,APOGEE,PERIGEE,DECAYED
56453.0,STARLINK-5935,PAYLOAD,2023-07-12 22:00:00,15.03702343,0.000312,70.0012,72.3246,271.2995,265.3655,-0.069245,-0.00881933,0.0,0 STARLINK-5935,1 56453U 23064F   23193.91667824 -.00881933  00000-0 -69245-1 0  9990,2 56453  70.0012  72.3246 0003120 271.2995 265.3655 15.03702343 10180,6933.629,95.764,557.657,553.331,0.0
56453.0,STARLINK-5935,PAYLOAD,2023-07-13 18:00:00,15.02135623,0.0003325,70.0015,70.2088,268.3268,95.7609,-0.080666,-0.00988988,0.0,0 STARLINK-5935,1 56453U 23064F   23194.75001157 -.00988988  00000-0 -80666-1 0  9992,2 56453  70.0015  70.2088 0003325 268.3268  95.7609 15.02135623 10310,6938.449,95.864,562.621,558.007,0.0
56453.0,STARLINK-5935,PAYLOAD,2023-07-14 04:00:01,15.01305686,0.0003201,70.001,69.1528,275.7652,180.2758,-0.079443,-0.00955194,0.0,0 STARLINK-5935,1 56453U 23064F   23195.16668981 -.00955194  00000-0 -79443-1 0  9996,2 56453  70.0010  69.1528 0003201 275.7652 180.2758 15.01305686 10371,6941.006,95.917,565.093,560.649,0.0
56453.0,STARLINK-5935,PAYLOAD,2023-07-14 22:00:00,14.99655835,0.0003341,70.0012,67.2555,271.5603,274.786,-0.041888,-0.00488024,0.0,0 STARLINK-5935,1 56453U 23064F   23195.91667824 -.00488024  00000-0 -41888-1 0  9999,2 56453  70.0012  67.2555 0003341 271.5603 274.7860 14.99655835 10482,6946.096,96.022,570.282,565.64,0.0
56453.0,STARLINK-5935,PAYLOAD,2023-07-15 06:00:02,14.99324635,0.0003338,70.0008,66.4135,272.2346,273.0213,-0.0045735,-0.0005565,0.0,0 STARLINK-5935,1 56453U 23064F   23196.25002315 -.00055650  00000-0 -45735-2 0  9996,2 56453  70.0008  66.4135 0003338 272.2346 273.0213 14.99324635 10531,6947.119,96.043,571.303,566.665,0.0
56453.0,STARLINK-5935,PAYLOAD,2023-07-15 22:00:00,14.9930394,0.0003404,70.001,64.7301,271.0081,271.484,-0.001246,-0.00015308,0.0,0 STARLINK-5935,1 56453U 23064F   23196.91667824 -.00015308  00000-0 -12460-2 0  9996,2 56453  70.0010  64.7301 0003404 271.0081 271.4840 14.99303940 10632,6947.183,96.045,571.413,566.683,0.0
56453.0,STARLINK-5935,PAYLOAD,2023-07-16 22:00:00,14.9930163,0.0003411,70.0007,62.2046,270.6387,267.79,-0.00036828,-4.597e-05,0.0,0 STARLINK-5935,1 56453U 23064F   23197.91667824 -.00004597  00000-0 -36828-3 0  9990,2 56453  70.0007  62.2046 0003411 270.6387 267.7900 14.99301630 10784,6947.19,96.045,571.425,566.685,0.0
56453.0,STARLINK-5935,PAYLOAD,2023-07-17 22:00:00,14.9931483,0.0003426,70.0005,59.6791,271.1804,263.2064,-0.0023318,-0.00028522,0.0,0 STARLINK-5935,1 56453U 23064F   23198.91667824 -.00028522  00000-0 -23318-2 0  9994,2 56453  70.0005  59.6791 0003426 271.1804 263.2064 14.99314830 10930,6947.149,96.044,571.394,566.634,0.0
56453.0,STARLINK-5935,PAYLOAD,2023-07-18 00:25:38,14.99305065,0.000325,69.9991,59.4232,267.3125,92.7663,8.421e-05,9.37e-06,0.0,0 STARLINK-5935,1 56453U 23064F   23199.01780385  .00000937  00000-0  84210-4 0  9992,2 56453  69.9991  59.4232 0003250 267.3125  92.7663 14.99305065 10959,6947.179,96.044,571.302,566.786,0.0
56453.0,STARLINK-5935,PAYLOAD,2023-07-18 14:50:17,14.99297361,0.0003183,69.9998,57.9078,267.9019,92.1776,-1.5711e-05,-2.86e-06,0.0,0 STARLINK-5935,1 56453U 23064F   23199.61826254 -.00000286  00000-0 -15711-4 0  9993,2 56453  69.9998  57.9078 0003183 267.9019  92.1776 14.99297361 11049,6947.203,96.045,571.279,566.857,0.0
56453.0,STARLINK-5935,PAYLOAD,2023-07-19 16:27:27,14.99299537,0.0003067,69.9999,55.2129,269.4437,90.6371,-5.0709e-05,-7.14e-06,0.0,0 STARLINK-5935,1 56453U 23064F   23200.68573244 -.00000714  00000-0 -50709-4 0  9993,2 56453  69.9999  55.2129 0003067 269.4437  90.6371 14.99299537 11209,6947.196,96.045,571.192,566.931,0.0
56453.0,STARLINK-5935,PAYLOAD,2023-07-20 19:40:40,14.99301281,0.0003447,69.9992,52.3479,274.1863,85.8903,9.4631e-05,1.064e-05,0.0,0 STARLINK-5935,1 56453U 23064F   23201.81991240  .00001064  00000-0  94631-4 0  9998,2 56453  69.9992  52.3479 0003447 274.1863  85.8903 14.99301281 11371,6947.191,96.045,571.451,566.661,0.0
56453.0,STARLINK-5935,PAYLOAD,2023-07-24 06:56:25,14.99299884,0.0003404,69.9987,43.5858,270.7938,89.2831,8.492e-06,1e-07,0.0,0 STARLINK-5935,1 56453U 23064F   23205.28918765  .00000010  00000-0  84920-5 0  9995,2 56453  69.9987  43.5858 0003404 270.7938  89.2831 14.99299884 11537,6947.195,96.045,571.425,566.695,0.0
56453.0,STARLINK-5935,PAYLOAD,2023-07-25 00:33:12,14.99307399,0.0003458,69.9985,41.7325,269.5786,90.4977,5.4704e-05,5.76e-06,0.0,0 STARLINK-5935,1 56453U 23064F   23206.02306544  .00000576  00000-0  54704-4 0  9997,2 56453  69.9985  41.7325 0003458 269.5786  90.4977 14.99307399 11648,6947.172,96.044,571.439,566.635,0.0
56453.0,STARLINK-5935,PAYLOAD,2023-07-26 00:34:18,14.99298718,0.0003337,70.0,39.2066,268.5119,91.5658,1.6793e-05,1.12e-06,0.0,0 STARLINK-5935,1 56453U 23064F   23207.02382439  .00000112  00000-0  16793-4 0  9997,2 56453  70.0000  39.2066 0003337 268.5119  91.5658 14.99298718 11796,6947.199,96.045,571.382,566.746,0.0
56453.0,STARLINK-5935,PAYLOAD,2023-07-26 19:47:09,14.99321067,0.0003413,69.9994,37.1846,269.7023,90.3745,-0.00017299,-2.211e-05,0.0,0 STARLINK-5935,1 56453U 23064F   23207.82441725 -.00002211  00000-0 -17299-3 0  9994,2 56453  69.9994  37.1846 0003413 269.7023  90.3745 14.99321067 12272,6947.13,96.043,571.366,566.624,0.0
56453.0,STARLINK-5935,PAYLOAD,2023-07-27 05:23:35,14.99305455,0.0003333,69.9978,36.172,271.4867,88.5911,-8.0873e-05,-1.083e-05,0.0,0 STARLINK-5935,1 56453U 23064F   23208.22472101 -.00001083  00000-0 -80873-4 0  9996,2 56453  69.9978  36.1720 0003333 271.4867  88.5911 14.99305455 12335,6947.178,96.044,571.359,566.728,0.0
56453.0,STARLINK-5935,PAYLOAD,2023-07-27 11:47:53,14.99297568,0.0003051,69.9995,35.4996,267.8439,92.2371,-3.4548e-05,-5.17e-06,0.0,0 STARLINK-5935,1 56453U 23064F   23208.49159276 -.00000517  00000-0 -34548-4 0  9999,2 56453  69.9995  35.4996 0003051 267.8439  92.2371 14.99297568 12014,6947.202,96.045,571.187,566.948,0.0
56453.0,STARLINK-5935,PAYLOAD,2023-07-27 21:24:20,14.99291537,0.0003139,69.9993,34.4883,269.336,90.744,-6.4241e-05,-8.8e-06,0.0,0 STARLINK-5935,1 56453U 23064F   23208.89189941 -.00000880  00000-0 -64241-4 0  9991,2 56453  69.9993  34.4883 0003139 269.3360  90.7440 14.99291537 12079,6947.221,96.045,571.267,566.905,0.0
56453.0,STARLINK-5935,PAYLOAD,2023-07-28 05:24:41,14.99297816,0.0003177,69.9993,33.6459,269.344,90.7356,-1.7775e-05,-3.11e-06,0.0,0 STARLINK-5935,1 56453U 23064F   23209.22547904 -.00000311  00000-0 -17775-4 0  9995,2 56453  69.9993  33.6459 0003177 269.3440  90.7356 14.99297816 12128,6947.202,96.045,571.274,566.859,0.0
56453.0,STARLINK-5935,PAYLOAD,2023-07-28 23:01:28,14.99306401,0.0003084,69.9993,31.7924,269.9842,90.0964,-2.3521e-05,-3.82e-06,0.0,0 STARLINK-5935,1 56453U 23064F   23209.95935760 -.00000382  00000-0 -23521-4 0  9990,2 56453  69.9993  31.7924 0003084 269.9842  90.0964 14.99306401 12593,6947.175,96.044,571.183,566.898,0.0
56453.0,STARLINK-5935,PAYLOAD,2023-07-29 10:14:21,14.9902736,0.0003778,69.9991,30.6158,261.5476,98.5255,-0.0027996,-0.00033945,0.0,0 STARLINK-5935,1 56453U 23064F   23210.42664011 -.00033945  00000-0 -27996-2 0  9991,2 56453  69.9991  30.6158 0003778 261.5476  98.5255 14.99027360 12667,6948.037,96.062,572.527,567.277,0.0
56453.0,STARLINK-5935,PAYLOAD,2023-07-29 18:15:08,14.98789222,0.0003322,70.0002,29.7717,268.077,92.0009,-0.0050417,-0.0006045,0.0,0 STARLINK-5935,1 56453U 23064F   23210.76051421 -.00060450  00000-0 -50417-2 0  9998,2 56453  70.0002  29.7717 0003322 268.0770  92.0009 14.98789222 12710,6948.773,96.078,572.947,568.33,0.0
56453.0,STARLINK-5935,PAYLOAD,2023-07-30 02:15:43,14.98729713,0.000349,69.9988,28.9308,270.1297,89.9463,-0.0052693,-0.00063055,0.0,0 STARLINK-5935,1 56453U 23064F   23211.09425094 -.00063055  00000-0 -52693-2 0  9998,2 56453  69.9988  28.9308 0003490 270.1297  89.9463 14.98729713 12764,6948.957,96.081,573.247,568.397,0.0
56453.0,STARLINK-5935,PAYLOAD,2023-07-31 05:29:41,14.98624472,0.0003606,69.9994,26.0671,271.9592,88.1154,-0.0046522,-0.00055589,0.0,0 STARLINK-5935,1 56453U 23064F   23212.22895141 -.00055589  00000-0 -46522-2 0  9995,2 56453  69.9994  26.0671 0003606 271.9592  88.1154 14.98624472 12932,6949.282,96.088,573.653,568.641,0.0
56453.0,STARLINK-5935,PAYLOAD,2023-07-31 22:00:00,14.98309763,0.0003417,70.0009,24.3333,275.9875,192.6002,0.0032167,0.0003848,0.0,0 STARLINK-5935,1 56453U 23064F   23212.91667824  .00038480  00000-0  32167-2 0  9995,2 56453  70.0009  24.3333 0003417 275.9875 192.6002 14.98309763 13034,6950.255,96.108,574.495,569.746,0.0
56453.0,STARLINK-5935,PAYLOAD,2023-08-01 22:00:00,14.98320045,0.0003394,70.0011,21.8117,275.7376,185.3065,0.0016166,0.00019245,0.0,0 STARLINK-5935,1 56453U 23064F   23213.91667824  .00019245  00000-0  16166-2 0  9995,2 56453  70.0011  21.8117 0003394 275.7376 185.3065 14.98320045 13187,6950.224,96.108,574.448,569.73,0.0
56453.0,STARLINK-5935,PAYLOAD,2023-08-02 10:22:08,14.98324763,0.0003293,69.9995,20.5132,272.7811,87.2971,2.6446e-05,2.22e-06,0.0,0 STARLINK-5935,1 56453U 23064F   23214.43203830  .00000222  00000-0  26446-4 0  9995,2 56453  69.9995  20.5132 0003293 272.7811  87.2971 14.98324763 13263,6950.209,96.107,574.363,569.785,0.0
56453.0,STARLINK-5935,PAYLOAD,2023-08-02 19:58:56,14.98331315,0.0003257,69.9997,19.5036,272.6464,87.4322,5.3976e-05,5.51e-06,0.0,0 STARLINK-5935,1 56453U 23064F   23214.83259391  .00000551  00000-0  53976-4 0  9995,2 56453  69.9997  19.5036 0003257 272.6464  87.4322 14.98331315 13329,6950.189,96.107,574.318,569.79,0.0
56453.0,STARLINK-5935,PAYLOAD,2023-08-03 20:00:57,14.98331549,0.0003073,70.0003,16.9784,270.8417,89.239,4.1493e-07,-8.8e-07,0.0,0 STARLINK-5935,1 56453U 23064F   23215.83399443 -.00000088  00000-0  41493-6 0  9998,2 56453  70.0003  16.9784 0003073 270.8417  89.2390 14.98331549 13475,6950.188,96.107,574.189,569.917,0.0
